[{"OBJECT_NAME":"STARLINK-3107","OBJECT_ID":"2021-082AT","EPOCH":"2026-03-09T21:59:27.140640","MEAN_MOTION":15.10504087,"ECCENTRICITY":0.00073375,"INCLINATION":69.9932,"RA_OF_ASC_NODE":287.3824,"ARG_OF_PERICENTER":250.2407,"MEAN_ANOMALY":109.7967,"EPHEMERIS_TYPE":0,"CLASSIFICATION_TYPE":"U","NORAD_CAT_ID":49171,"ELEMENT_SET_NO":999,"REV_AT_EPOCH":24733,"BSTAR":0.001517345,"MEAN_MOTION_DOT":0.00025048,"MEAN_MOTION_DDOT":0},{"OBJECT_NAME":"STARLINK-6155","OBJECT_ID":"2023-088AE","EPOCH":"2026-03-09T22:00:01.999584","MEAN_MOTION":15.0814224,"ECCENTRICITY":6.889e-5,"INCLINATION":43.0008,"RA_OF_ASC_NODE":93.5945,"ARG_OF_PERICENTER":294.9582,"MEAN_ANOMALY":282.2332,"EPHEMERIS_TYPE":0,"CLASSIFICATION_TYPE":"U","NORAD_CAT_ID":57076,"ELEMENT_SET_NO":999,"REV_AT_EPOCH":557,"BSTAR":0.0031941456,"MEAN_MOTION_DOT":0.00050317,"MEAN_MOTION_DDOT":0}]
